start=new Date('2023-05-15T00:00:00.000Z').valueOf();
sats=[{"ARG_OF_PERICENTER":"77.0164","SITE":"AFETR","LAUNCH_DATE":"2021-03-14","TIME_SYSTEM":"UTC","EPOCH":"2023-05-14T13:48:20.764512","PERIOD":"95.594","MEAN_ELEMENT_THEORY":"SGP4","INCLINATION":"53.0534","RA_OF_ASC_NODE":"230.9794","MEAN_ANOMALY":"283.0965","REF_FRAME":"TEME","FILE":"3907744","TLE_LINE2":"2 47885  53.0534 230.9794 0001258  77.0164 283.0965 15.06377035120877","REV_AT_EPOCH":"12087","MEAN_MOTION_DDOT":"0.0000000000000","APOAPSIS":"548.155","DECAY_DATE":null,"CENTER_NAME":"EARTH","MEAN_MOTION":"15.06377035","TLE_LINE1":"1 47885U 21021AB  23134.57524033  .00017209  00000-0  11721-2 0  9993","PERIAPSIS":"546.413","MEAN_MOTION_DOT":"0.00017209","NORAD_CAT_ID":"47885","SEMIMAJOR_AXIS":"6925.419","GP_ID":"231819791","CLASSIFICATION_TYPE":"U","RCS_SIZE":"LARGE","OBJECT_NAME":"STARLINK-2344","ECCENTRICITY":"0.00012580","OBJECT_ID":"2021-021AB","OBJECT_TYPE":"PAYLOAD","EPHEMERIS_TYPE":"0","COUNTRY_CODE":"US","BSTAR":"0.00117210000000","ELEMENT_SET_NO":"999"},{"MEAN_MOTION":"15.27187949","PERIAPSIS":"479.788","TLE_LINE1":"1 47886U 21021AC  23134.58365992  .00064705  00000-0  23867-2 0  9999","MEAN_MOTION_DOT":"0.00064705","SEMIMAJOR_AXIS":"6862.360","NORAD_CAT_ID":"47886","RCS_SIZE":"LARGE","GP_ID":"231826582","CLASSIFICATION_TYPE":"U","OBJECT_NAME":"STARLINK-2345","OBJECT_ID":"2021-021AC","ECCENTRICITY":"0.00064660","OBJECT_TYPE":"PAYLOAD","EPHEMERIS_TYPE":"0","COUNTRY_CODE":"US","BSTAR":"0.00238670000000","ELEMENT_SET_NO":"999","ARG_OF_PERICENTER":"332.9414","LAUNCH_DATE":"2021-03-14","TIME_SYSTEM":"UTC","SITE":"AFETR","EPOCH":"2023-05-14T14:00:28.217088","PERIOD":"94.291","MEAN_ELEMENT_THEORY":"SGP4","RA_OF_ASC_NODE":"209.8672","INCLINATION":"53.0597","REF_FRAME":"TEME","MEAN_ANOMALY":"27.1246","TLE_LINE2":"2 47886  53.0597 209.8672 0006466 332.9414  27.1246 15.27187949120532","FILE":"3907836","REV_AT_EPOCH":"12053","APOAPSIS":"488.662","MEAN_MOTION_DDOT":"0.0000000000000","CENTER_NAME":"EARTH","DECAY_DATE":null},{"OBJECT_NAME":"STARLINK-2346","GP_ID":"231819290","CLASSIFICATION_TYPE":"U","RCS_SIZE":"LARGE","OBJECT_TYPE":"PAYLOAD","ECCENTRICITY":"0.00009840","OBJECT_ID":"2021-021AD","TLE_LINE1":"1 47887U 21021AD  23134.53330900 -.00003646  00000-0 -22603-3 0  9993","PERIAPSIS":"546.540","MEAN_MOTION":"15.06397344","NORAD_CAT_ID":"47887","SEMIMAJOR_AXIS":"6925.357","MEAN_MOTION_DOT":"-0.00003646","BSTAR":"-0.00022603000000","ELEMENT_SET_NO":"999","COUNTRY_CODE":"US","EPHEMERIS_TYPE":"0","SITE":"AFETR","LAUNCH_DATE":"2021-03-14","TIME_SYSTEM":"UTC","ARG_OF_PERICENTER":"88.1712","PERIOD":"95.592","EPOCH":"2023-05-14T12:47:57.897600","REV_AT_EPOCH":"12078","DECAY_DATE":null,"CENTER_NAME":"EARTH","MEAN_MOTION_DDOT":"0.0000000000000","APOAPSIS":"547.903","INCLINATION":"53.0529","RA_OF_ASC_NODE":"226.1708","MEAN_ELEMENT_THEORY":"SGP4","TLE_LINE2":"2 47887  53.0529 226.1708 0000984  88.1712 271.9390 15.06397344120785","FILE":"3907744","REF_FRAME":"TEME","MEAN_ANOMALY":"271.9390"},{"DECAY_DATE":null,"CENTER_NAME":"EARTH","MEAN_MOTION_DDOT":"0.0000000000000","APOAPSIS":"548.275","REV_AT_EPOCH":"12094","TLE_LINE2":"2 47888  53.0532 215.7677 0001489  86.3335 273.7824 15.06390186120948","FILE":"3908005","MEAN_ANOMALY":"273.7824","REF_FRAME":"TEME","INCLINATION":"53.0532","RA_OF_ASC_NODE":"215.7677","MEAN_ELEMENT_THEORY":"SGP4","PERIOD":"95.593","EPOCH":"2023-05-14T14:56:41.512416","SITE":"AFETR","LAUNCH_DATE":"2021-03-14","TIME_SYSTEM":"UTC","ARG_OF_PERICENTER":"86.3335","ELEMENT_SET_NO":"999","BSTAR":"0.00106380000000","COUNTRY_CODE":"US","EPHEMERIS_TYPE":"0","OBJECT_TYPE":"PAYLOAD","ECCENTRICITY":"0.00014890","OBJECT_ID":"2021-021AE","OBJECT_NAME":"STARLINK-2348","CLASSIFICATION_TYPE":"U","GP_ID":"231852150","RCS_SIZE":"LARGE","NORAD_CAT_ID":"47888","SEMIMAJOR_AXIS":"6925.379","MEAN_MOTION_DOT":"0.00015595","TLE_LINE1":"1 47888U 21021AE  23134.62270269  .00015595  00000-0  10638-2 0  9993","PERIAPSIS":"546.212","MEAN_MOTION":"15.06390186"},{"BSTAR":"0.00065902000000","ELEMENT_SET_NO":"999","COUNTRY_CODE":"US","EPHEMERIS_TYPE":"0","OBJECT_NAME":"STARLINK-2349","GP_ID":"231852401","CLASSIFICATION_TYPE":"U","RCS_SIZE":"LARGE","OBJECT_TYPE":"PAYLOAD","ECCENTRICITY":"0.00013240","OBJECT_ID":"2021-021AF","TLE_LINE1":"1 47889U 21021AF  23134.70009955  .00009544  00000-0  65902-3 0  9997","PERIAPSIS":"546.343","MEAN_MOTION":"15.06384725","NORAD_CAT_ID":"47889","SEMIMAJOR_AXIS":"6925.395","MEAN_MOTION_DOT":"0.00009544","REV_AT_EPOCH":"12100","DECAY_DATE":null,"CENTER_NAME":"EARTH","MEAN_MOTION_DDOT":"0.0000000000000","APOAPSIS":"548.177","INCLINATION":"53.0547","RA_OF_ASC_NODE":"215.4173","MEAN_ELEMENT_THEORY":"SGP4","FILE":"3908005","TLE_LINE2":"2 47889  53.0547 215.4173 0001324 116.6017 243.5108 15.06384725121005","MEAN_ANOMALY":"243.5108","REF_FRAME":"TEME","SITE":"AFETR","LAUNCH_DATE":"2021-03-14","TIME_SYSTEM":"UTC","ARG_OF_PERICENTER":"116.6017","PERIOD":"95.593","EPOCH":"2023-05-14T16:48:08.601120"},{"MEAN_MOTION_DDOT":"0.0000000000000","APOAPSIS":"548.140","DECAY_DATE":null,"CENTER_NAME":"EARTH","REV_AT_EPOCH":"12095","MEAN_ANOMALY":"278.5148","REF_FRAME":"TEME","FILE":"3907744","TLE_LINE2":"2 47891  53.0530 225.9861 0001244  81.5982 278.5148 15.06378857120956","MEAN_ELEMENT_THEORY":"SGP4","INCLINATION":"53.0530","RA_OF_ASC_NODE":"225.9861","EPOCH":"2023-05-14T13:46:22.414656","PERIOD":"95.593","ARG_OF_PERICENTER":"81.5982","SITE":"AFETR","LAUNCH_DATE":"2021-03-14","TIME_SYSTEM":"UTC","ELEMENT_SET_NO":"999","BSTAR":"0.00184220000000","EPHEMERIS_TYPE":"0","COUNTRY_CODE":"US","ECCENTRICITY":"0.00012440","OBJECT_ID":"2021-021AH","OBJECT_TYPE":"PAYLOAD","GP_ID":"231818541","CLASSIFICATION_TYPE":"U","RCS_SIZE":"LARGE","OBJECT_NAME":"STARLINK-2351","MEAN_MOTION_DOT":"0.00027249","NORAD_CAT_ID":"47891","SEMIMAJOR_AXIS":"6925.413","MEAN_MOTION":"15.06378857","TLE_LINE1":"1 47891U 21021AH  23134.57387054  .00027249  00000-0  18422-2 0  9990","PERIAPSIS":"546.417"},{"PERIOD":"94.899","EPOCH":"2023-05-14T20:58:41.034720","LAUNCH_DATE":"2021-03-14","TIME_SYSTEM":"UTC","SITE":"AFETR","ARG_OF_PERICENTER":"85.2014","CENTER_NAME":"EARTH","DECAY_DATE":null,"APOAPSIS":"514.600","MEAN_MOTION_DDOT":"0.0000000000000","REV_AT_EPOCH":"12131","TLE_LINE2":"2 47892  53.0519 191.3393 0001293  85.2014 274.9127 15.17398308121314","FILE":"3908005","REF_FRAME":"TEME","MEAN_ANOMALY":"274.9127","RA_OF_ASC_NODE":"191.3393","INCLINATION":"53.0519","MEAN_ELEMENT_THEORY":"SGP4","OBJECT_TYPE":"PAYLOAD","OBJECT_ID":"2021-021AJ","ECCENTRICITY":"0.00012930","OBJECT_NAME":"STARLINK-2352","RCS_SIZE":"LARGE","GP_ID":"231851900","CLASSIFICATION_TYPE":"U","SEMIMAJOR_AXIS":"6891.844","NORAD_CAT_ID":"47892","MEAN_MOTION_DOT":"0.00027131","PERIAPSIS":"512.818","TLE_LINE1":"1 47892U 21021AJ  23134.87408605  .00027131  00000-0  13516-2 0  9999","MEAN_MOTION":"15.17398308","ELEMENT_SET_NO":"999","BSTAR":"0.00135160000000","COUNTRY_CODE":"US","EPHEMERIS_TYPE":"0"},{"LAUNCH_DATE":"2021-03-14","TIME_SYSTEM":"UTC","SITE":"AFETR","ARG_OF_PERICENTER":"87.1579","PERIOD":"95.594","EPOCH":"2023-05-14T15:55:04.471680","REV_AT_EPOCH":"12089","CENTER_NAME":"EARTH","DECAY_DATE":null,"APOAPSIS":"548.254","MEAN_MOTION_DDOT":"0.0000000000000","RA_OF_ASC_NODE":"215.5842","INCLINATION":"53.0537","MEAN_ELEMENT_THEORY":"SGP4","FILE":"3908005","TLE_LINE2":"2 47894  53.0537 215.5842 0001398  87.1579 272.9570 15.06376338120896","REF_FRAME":"TEME","MEAN_ANOMALY":"272.9570","OBJECT_NAME":"STARLINK-2354","RCS_SIZE":"LARGE","GP_ID":"231851650","CLASSIFICATION_TYPE":"U","OBJECT_TYPE":"PAYLOAD","OBJECT_ID":"2021-021AL","ECCENTRICITY":"0.00013980","PERIAPSIS":"546.318","TLE_LINE1":"1 47894U 21021AL  23134.66324620  .00015510  00000-0  10585-2 0  9993","MEAN_MOTION":"15.06376338","SEMIMAJOR_AXIS":"6925.421","NORAD_CAT_ID":"47894","MEAN_MOTION_DOT":"0.00015510","BSTAR":"0.00105850000000","ELEMENT_SET_NO":"999","COUNTRY_CODE":"US","EPHEMERIS_TYPE":"0"},{"ELEMENT_SET_NO":"999","BSTAR":"0.00156490000000","EPHEMERIS_TYPE":"0","COUNTRY_CODE":"US","ECCENTRICITY":"0.00011090","OBJECT_ID":"2021-021AM","OBJECT_TYPE":"PAYLOAD","GP_ID":"231852902","CLASSIFICATION_TYPE":"U","RCS_SIZE":"LARGE","OBJECT_NAME":"STARLINK-2355","MEAN_MOTION_DOT":"0.00023093","NORAD_CAT_ID":"47895","SEMIMAJOR_AXIS":"6925.403","MEAN_MOTION":"15.06382197","TLE_LINE1":"1 47895U 21021AM  23134.74064640  .00023093  00000-0  15649-2 0  9997","PERIAPSIS":"546.500","MEAN_MOTION_DDOT":"0.0000000000000","APOAPSIS":"548.036","DECAY_DATE":null,"CENTER_NAME":"EARTH","REV_AT_EPOCH":"12093","REF_FRAME":"TEME","MEAN_ANOMALY":"271.7543","FILE":"3908005","TLE_LINE2":"2 47895  53.0522 215.2408 0001109  88.3573 271.7543 15.06382197120935","MEAN_ELEMENT_THEORY":"SGP4","INCLINATION":"53.0522","RA_OF_ASC_NODE":"215.2408","EPOCH":"2023-05-14T17:46:31.848960","PERIOD":"95.593","ARG_OF_PERICENTER":"88.3573","SITE":"AFETR","TIME_SYSTEM":"UTC","LAUNCH_DATE":"2021-03-14"},{"OBJECT_ID":"2021-021AN","ECCENTRICITY":"0.00012230","OBJECT_TYPE":"PAYLOAD","RCS_SIZE":"LARGE","GP_ID":"231852652","CLASSIFICATION_TYPE":"U","OBJECT_NAME":"STARLINK-2356","MEAN_MOTION_DOT":"0.00026224","SEMIMAJOR_AXIS":"6925.409","NORAD_CAT_ID":"47896","MEAN_MOTION":"15.06380342","PERIAPSIS":"546.427","TLE_LINE1":"1 47896U 21021AN  23134.66738829  .00026224  00000-0  17738-2 0  9996","ELEMENT_SET_NO":"999","BSTAR":"0.00177380000000","EPHEMERIS_TYPE":"0","COUNTRY_CODE":"US","EPOCH":"2023-05-14T16:01:02.348256","PERIOD":"95.593","ARG_OF_PERICENTER":"76.4079","LAUNCH_DATE":"2021-03-14","TIME_SYSTEM":"UTC","SITE":"AFETR","APOAPSIS":"548.121","MEAN_MOTION_DDOT":"0.0000000000000","CENTER_NAME":"EARTH","DECAY_DATE":null,"REV_AT_EPOCH":"12068","MEAN_ANOMALY":"283.7046","REF_FRAME":"TEME","TLE_LINE2":"2 47896  53.0533 230.5675 0001223  76.4079 283.7046 15.06380342120683","FILE":"3908005","MEAN_ELEMENT_THEORY":"SGP4","RA_OF_ASC_NODE":"230.5675","INCLINATION":"53.0533"}];
